[{"OBJECT_NAME":"CELESTIS-02 & TAURUS R/B","OBJECT_ID":"1998-007D","EPOCH":"2026-03-07T03:11:54.379392","MEAN_MOTION":14.22452307,"ECCENTRICITY":0.0063309,"INCLINATION":108.0079,"RA_OF_ASC_NODE":126.297,"ARG_OF_PERICENTER":306.295,"MEAN_ANOMALY":78.8272,"EPHEMERIS_TYPE":0,"CLASSIFICATION_TYPE":"U","NORAD_CAT_ID":25160,"ELEMENT_SET_NO":999,"REV_AT_EPOCH":45600,"BSTAR":6.117e-5,"MEAN_MOTION_DOT":9.0e-8,"MEAN_MOTION_DDOT":0}]
