CELESTIS-02 & TAURUS R/B
1 25160U 98007D   26066.13326828  .00000009  00000+0  61170-4 0  9998
2 25160 108.0079 126.2970 0063309 306.2950  78.8272 14.22452307456003
